STARLINK-30476
1 57930U 23147T   26092.83335647  .00100251  00000+0  23132-2 0  9990
2 57930  42.9928 133.0910 0018381  44.4292 134.4433 15.41335313  5863
